NORAD_CAT_ID,OBJECT_NAME,OBJECT_TYPE,EPOCH,MEAN_MOTION,ECCENTRICITY,INCLINATION,RA_OF_ASC_NODE,ARG_OF_PERICENTER,MEAN_ANOMALY,BSTAR,MEAN_MOTION_DOT,MEAN_MOTION_DDOT,TLE_LINE0,TLE_LINE1,TLE_LINE2,SEMIMAJOR_AXIS,PERIOD,APOGEE,PERIGEE,DECAYED
52272.0,STARLINK-3781,PAYLOAD,2024-04-19 14:06:42,15.08851157,0.0001534,53.2162,322.6583,75.485,284.6312,0.00060031,9.282e-05,0.0,0 STARLINK-3781,1 52272U 22041M   24110.58799085  .00009282  00000-0  60031-3 0  9990,2 52272  53.2162 322.6583 0001534  75.4850 284.6312 15.08851157110335,6917.846,95.437,540.772,538.65,0.0
52272.0,STARLINK-3781,PAYLOAD,2024-04-19 20:28:14,15.08867614,0.0001638,53.2164,321.4702,73.3833,286.7339,0.00084469,0.00013191,0.0,0 STARLINK-3781,1 52272U 22041M   24110.85294493  .00013191  00000-0  84469-3 0  9998,2 52272  53.2164 321.4702 0001638  73.3833 286.7339 15.08867614110371,6917.796,95.436,540.794,538.528,0.0
52272.0,STARLINK-3781,PAYLOAD,2024-04-19 23:39:00,15.08881946,0.0001447,53.2169,320.8716,102.2966,257.8189,0.0011688,0.00018384,0.0,0 STARLINK-3781,1 52272U 22041M   24110.98541743  .00018384  00000-0  11688-2 0  9996,2 52272  53.2169 320.8716 0001447 102.2966 257.8189 15.08881946111626,6917.752,95.435,540.618,538.616,0.0
52272.0,STARLINK-3781,PAYLOAD,2024-04-20 18:43:38,15.08830265,0.0001615,53.2172,317.3067,101.1645,258.9528,-0.00011184,-2.067e-05,0.0,0 STARLINK-3781,1 52272U 22041M   24111.78031088 -.00002067  00000-0 -11184-3 0  9996,2 52272  53.2172 317.3067 0001615 101.1645 258.9528 15.08830265111749,6917.91,95.438,540.892,538.658,0.0
52272.0,STARLINK-3781,PAYLOAD,2024-04-21 13:48:16,15.08844619,0.0001324,53.2175,313.7319,96.2213,263.893,0.0008233,0.00012841,0.0,0 STARLINK-3781,1 52272U 22041M   24112.57519403  .00012841  00000-0  82330-3 0  9996,2 52272  53.2175 313.7319 0001324  96.2213 263.8930 15.08844619110631,6917.866,95.437,540.647,538.815,0.0
52272.0,STARLINK-3781,PAYLOAD,2024-04-21 18:34:25,15.08859248,0.0001449,53.2169,312.8467,91.4956,268.6202,0.001151,0.00018087,0.0,0 STARLINK-3781,1 52272U 22041M   24112.77391146  .00018087  00000-0  11510-2 0  9999,2 52272  53.2169 312.8467 0001449  91.4956 268.6202 15.08859248111895,6917.822,95.436,540.689,538.684,0.0
52272.0,STARLINK-3781,PAYLOAD,2024-04-21 23:20:34,15.08871042,0.0001406,53.2168,311.9505,85.3235,274.7918,0.0012971,0.00020433,0.0,0 STARLINK-3781,1 52272U 22041M   24112.97262691  .00020433  00000-0  12971-2 0  9993,2 52272  53.2168 311.9505 0001406  85.3235 274.7918 15.08871042110697,6917.786,95.436,540.623,538.678,0.0
52272.0,STARLINK-3781,PAYLOAD,2024-04-22 20:00:36,15.08845837,0.0001236,53.2183,308.088,95.4611,264.6522,0.0015213,0.0002401,0.0,0 STARLINK-3781,1 52272U 22041M   24113.83375165  .00024010  00000-0  15213-2 0  9997,2 52272  53.2183 308.0880 0001236  95.4611 264.6522 15.08845837112052,6917.863,95.437,540.583,538.872,0.0
52272.0,STARLINK-3781,PAYLOAD,2024-04-23 19:51:23,15.08845943,0.0001436,53.2182,303.6279,99.9014,260.214,0.00038088,5.78e-05,0.0,0 STARLINK-3781,1 52272U 22041M   24114.82735189  .00005780  00000-0  38088-3 0  9992,2 52272  53.2182 303.6279 0001436  99.9014 260.2140 15.08845943112205,6917.862,95.437,540.721,538.734,0.0
52272.0,STARLINK-3781,PAYLOAD,2024-04-23 23:02:09,15.08849306,0.0001339,53.2175,303.0249,97.947,262.1674,0.00056685,8.747e-05,0.0,0 STARLINK-3781,1 52272U 22041M   24114.95983052  .00008747  00000-0  56685-3 0  9999,2 52272  53.2175 303.0249 0001339  97.9470 262.1674 15.08849306110998,6917.852,95.437,540.643,538.791,0.0
52272.0,STARLINK-3781,PAYLOAD,2024-04-24 19:42:10,15.08838446,0.0002485,53.2171,299.1657,48.0884,312.032,0.00037894,5.748e-05,0.0,0 STARLINK-3781,1 52272U 22041M   24115.82095986  .00005748  00000-0  37894-3 0  9995,2 52272  53.2171 299.1657 0002485  48.0884 312.0320 15.08838446112359,6917.885,95.438,541.469,538.031,0.0
52272.0,STARLINK-3781,PAYLOAD,2024-04-24 21:17:33,15.08852631,0.0001251,53.2171,298.8682,112.9724,247.14,0.00061341,9.491e-05,0.0,0 STARLINK-3781,1 52272U 22041M   24115.88719112  .00009491  00000-0  61341-3 0  9998,2 52272  53.2171 298.8682 0001251 112.9724 247.1400 15.08852631111131,6917.842,95.437,540.572,538.841,0.0
52272.0,STARLINK-3781,PAYLOAD,2024-04-25 11:36:01,15.08833281,0.0001118,53.2168,296.1867,127.9865,232.1228,-2.0748e-05,-6.18e-06,0.0,0 STARLINK-3781,1 52272U 22041M   24116.48335318 -.00000618  00000-0 -20748-4 0  9998,2 52272  53.2168 296.1867 0001118 127.9865 232.1228 15.08833281112455,6917.901,95.438,540.539,538.993,0.0
52272.0,STARLINK-3781,PAYLOAD,2024-04-25 16:22:10,15.08844777,0.0001738,53.2166,295.2958,126.8802,233.2349,0.00036752,5.567e-05,0.0,0 STARLINK-3781,1 52272U 22041M   24116.68207104  .00005567  00000-0  36752-3 0  9998,2 52272  53.2166 295.2958 0001738 126.8802 233.2349 15.08844777112482,6917.866,95.437,540.933,538.528,0.0
52272.0,STARLINK-3781,PAYLOAD,2024-04-26 11:26:49,15.08840535,0.0001337,53.2166,291.733,89.6027,270.5118,0.00026529,3.937e-05,0.0,0 STARLINK-3781,1 52272U 22041M   24117.47695859  .00003937  00000-0  26529-3 0  9994,2 52272  53.2166 291.7330 0001337  89.6027 270.5118 15.08840535112607,6917.879,95.438,540.669,538.819,0.0
52272.0,STARLINK-3781,PAYLOAD,2024-04-26 17:48:21,15.08844008,0.0001272,53.2164,290.5436,91.5901,268.5237,0.00034476,5.204e-05,0.0,0 STARLINK-3781,1 52272U 22041M   24117.74191728  .00005204  00000-0  34476-3 0  9999,2 52272  53.2164 290.5436 0001272  91.5901 268.5237 15.08844008111416,6917.868,95.437,540.613,538.853,0.0
52272.0,STARLINK-3781,PAYLOAD,2024-04-27 14:28:22,15.0884475,0.0001414,53.2157,286.6774,89.9484,270.167,0.00020859,3.034e-05,0.0,0 STARLINK-3781,1 52272U 22041M   24118.60303681  .00003034  00000-0  20859-3 0  9997,2 52272  53.2157 286.6774 0001414  89.9484 270.1670 15.08844750111542,6917.866,95.437,540.709,538.753,0.0
52272.0,STARLINK-3781,PAYLOAD,2024-04-27 20:49:54,15.08853432,0.0001178,53.2153,285.4876,92.8149,267.2978,0.00036951,5.6e-05,0.0,0 STARLINK-3781,1 52272U 22041M   24118.86799317  .00005600  00000-0  36951-3 0  9991,2 52272  53.2153 285.4876 0001178  92.8149 267.2978 15.08853432112812,6917.839,95.437,540.519,538.889,0.0
52272.0,STARLINK-3781,PAYLOAD,2024-04-28 11:08:23,15.08834489,0.0001469,53.2158,282.8116,88.4127,271.7034,-2.6363e-05,-7.07e-06,0.0,0 STARLINK-3781,1 52272U 22041M   24119.46416167 -.00000707  00000-0 -26363-4 0  9999,2 52272  53.2158 282.8116 0001469  88.4127 271.7034 15.08834489112909,6917.897,95.438,540.778,538.746,0.0
52272.0,STARLINK-3781,PAYLOAD,2024-04-28 14:19:09,15.08839299,0.0001872,53.2158,282.2116,103.971,256.149,-9.4797e-05,-1.797e-05,0.0,0 STARLINK-3781,1 52272U 22041M   24119.59664159 -.00001797  00000-0 -94797-4 0  9995,2 52272  53.2158 282.2116 0001872 103.9710 256.1490 15.08839299111694,6917.883,95.438,541.043,538.453,0.0
52272.0,STARLINK-3781,PAYLOAD,2024-04-28 17:29:56,15.08835753,0.0001273,53.2165,281.6219,85.7834,274.3303,-2.9575e-07,-2.93e-06,0.0,0 STARLINK-3781,1 52272U 22041M   24119.72912244 -.00000293  00000-0 -29575-6 0  9995,2 52272  53.2165 281.6219 0001273  85.7834 274.3303 15.08835753111717,6917.893,95.438,540.639,538.878,0.0
52272.0,STARLINK-3781,PAYLOAD,2024-04-29 10:59:10,15.0884162,0.0001173,53.2174,278.35,84.7529,275.3597,8.9565e-05,1.138e-05,0.0,0 STARLINK-3781,1 52272U 22041M   24120.45776061  .00001138  00000-0  89565-4 0  9992,2 52272  53.2174 278.3500 0001173  84.7529 275.3597 15.08841620111820,6917.875,95.437,540.552,538.929,0.0
52272.0,STARLINK-3781,PAYLOAD,2024-04-29 17:20:43,15.08843407,0.0001134,53.2171,277.1595,82.7028,277.4093,0.00011737,1.581e-05,0.0,0 STARLINK-3781,1 52272U 22041M   24120.72272019  .00001581  00000-0  11737-3 0  9993,2 52272  53.2171 277.1595 0001134  82.7028 277.4093 15.08843407113097,6917.87,95.437,540.519,538.95,0.0
52272.0,STARLINK-3781,PAYLOAD,2024-04-30 02:53:02,15.08830073,0.000121,53.2161,275.3763,84.4139,275.6991,-8.2629e-05,-1.602e-05,0.0,0 STARLINK-3781,1 52272U 22041M   24121.12016766 -.00001602  00000-0 -82629-4 0  9998,2 52272  53.2161 275.3763 0001210  84.4139 275.6991 15.08830073113159,6917.911,95.438,540.613,538.939,0.0
52272.0,STARLINK-3781,PAYLOAD,2024-04-30 14:00:45,15.08820855,0.0001252,53.217,273.2973,82.092,278.0214,-6.4736e-05,-1.317e-05,0.0,0 STARLINK-3781,1 52272U 22041M   24121.58385951 -.00001317  00000-0 -64736-4 0  9995,2 52272  53.2170 273.2973 0001252  82.0920 278.0214 15.08820855111999,6917.939,95.439,540.67,538.938,0.0
52272.0,STARLINK-3781,PAYLOAD,2024-04-30 17:11:31,15.08822381,0.0001255,53.2179,272.7032,86.8954,273.2182,-4.405e-05,-9.88e-06,0.0,0 STARLINK-3781,1 52272U 22041M   24121.71633986 -.00000988  00000-0 -44050-4 0  9994,2 52272  53.2179 272.7032 0001255  86.8954 273.2182 15.08822381113247,6917.934,95.439,540.667,538.931,0.0
52272.0,STARLINK-3781,PAYLOAD,2024-05-01 02:43:50,15.08832952,0.000142,53.2183,270.9197,97.7192,262.3961,6.1139e-05,6.85e-06,0.0,0 STARLINK-3781,1 52272U 22041M   24122.11377763  .00000685  00000-0  61139-4 0  9996,2 52272  53.2183 270.9197 0001420  97.7192 262.3961 15.08832952113309,6917.902,95.438,540.749,538.785,0.0
52272.0,STARLINK-3781,PAYLOAD,2024-05-01 10:40:45,15.08840999,8.76e-05,53.2164,269.4303,83.8873,276.2219,0.00019538,2.823e-05,0.0,0 STARLINK-3781,1 52272U 22041M   24122.44497311  .00002823  00000-0  19538-3 0  9995,2 52272  53.2164 269.4303 0000876  83.8873 276.2219 15.08840999113351,6917.877,95.437,540.348,539.136,0.0
52272.0,STARLINK-3781,PAYLOAD,2024-05-01 17:02:17,15.08854478,0.0001559,53.2188,268.2443,104.1962,255.9203,0.00038806,5.896e-05,0.0,0 STARLINK-3781,1 52272U 22041M   24122.70992656  .00005896  00000-0  38806-3 0  9998,2 52272  53.2188 268.2443 0001559 104.1962 255.9203 15.08854478113392,6917.836,95.437,540.78,538.623,0.0
52272.0,STARLINK-3781,PAYLOAD,2024-05-02 02:34:36,15.08850785,1.87e-05,53.2174,266.4586,222.8907,137.207,0.00027298,4.061e-05,0.0,0 STARLINK-3781,1 52272U 22041M   24123.10736554  .00004061  00000-0  27298-3 0  9992,2 52272  53.2174 266.4586 0000187 222.8907 137.2070 15.08850785113456,6917.847,95.437,539.842,539.583,0.0
